ONEWEB-0674             
1 55833U 23029AP  26195.20238289 -.00000179  00000+0 -51796-3 0  9996
2 55833  87.8964 284.3327 0001624 104.9645 255.1665 13.14501297162966
ONEWEB-0675             
1 55834U 23029AQ  26195.12220404  .00000013  00000+0  10324-5 0  9997
2 55834  87.9186 299.6136 0002250  97.1479 262.9909 13.19724102162475
ONEWEB-0720             
1 55835U 23029AR  26194.81103830 -.00000018  00000+0 -78444-4 0  9999
2 55835  87.9183 299.6751 0002112 108.7441 251.3921 13.19726034162350
ONEWEB-0537             
1 56046U 23043A   26195.09752638  .00000072  00000+0  15574-3 0  9999
2 56046  87.9081 223.4258 0002205  88.0385 272.0998 13.16594526162506
ONEWEB-0538             
1 56047U 23043B   26195.09119102  .00000003  00000+0 -24952-4 0  9999
2 56047  87.9082 223.4300 0002347  96.4761 263.6638 13.16594040162513
ONEWEB-0546             
1 56048U 23043C   26195.15452277  .00000011  00000+0 -59537-5 0  9997
2 56048  87.9085 223.4171 0002273  78.6864 281.4522 13.16593124162519
ONEWEB-0547             
1 56049U 23043D   26195.12034161  .00000067  00000+0  13049-3 0  9999
2 56049  87.9241 238.6146 0002241 102.5954 257.5431 13.21827218161787
ONEWEB-0548             
1 56050U 23043E   26195.10305650 -.00000061  00000+0 -19275-3 0  9996
2 56050  87.9078 223.4232 0001589  92.2587 267.8726 13.16594455162506
ONEWEB-0549             
1 56051U 23043F   26195.19015542  .00000001  00000+0 -28499-4 0  9996
2 56051  87.9235 238.6060 0002461 101.1843 258.9568 13.21826871161795
ONEWEB-0550             
1 56052U 23043G   26195.17670897  .00000022  00000+0  20824-4 0  9991
2 56052  87.9237 238.6067 0001869  99.3019 260.8327 13.21826690161793
ONEWEB-0551             
1 56053U 23043H   26195.15559096  .00000163  00000+0  39894-3 0  9999
2 56053  87.8985 253.8528 0002372 103.5183 256.6211 13.15547320159946
ONEWEB-0552             
1 56054U 23043J   26195.17164853  .00000036  00000+0  54459-4 0  9999
2 56054  87.9229 238.6128 0002088 100.7617 259.3752 13.21826222161795
ONEWEB-0553             
1 56055U 23043K   26195.16085501  .00000002  00000+0 -27514-4 0  9997
2 56055  87.9082 223.4161 0002064  83.5853 276.5513 13.16593419162527
ONEWEB-0554             
1 56056U 23043L   26195.14819147  .00000019  00000+0  16630-4 0  9991
2 56056  87.9081 223.4271 0001519  95.4113 264.7192 13.16594029162502
ONEWEB-0555             
1 56057U 23043M   26195.11018529 -.00000021  00000+0 -87585-4 0  9996
2 56057  87.9079 223.4239 0002223  78.0756 282.0624 13.16593743162502
ONEWEB-0557             
1 56058U 23043N   26195.12443547  .00000001  00000+0 -32203-4 0  9994
2 56058  87.9080 223.4308 0001374  56.5692 303.5570 13.16593746162500
